{"type": "FeatureCollection", "features": [ {"type": "Feature", "properties": {"norad_id": 66697, "name": "IRIDE FM3", "group": "last-30-days", "lat": -10.606950655161251, "lon": 69.95354481314665, "alt_km": 516.5111696124031, "timestamp": "2025-12-22T22:44:19.650091+00:00", "meta": {"OBJECT_NAME": "IRIDE FM3", "OBJECT_ID": "2025-276AH", "EPOCH": "2025-12-22T11:42:45.856800", "MEAN_MOTION": 15.18156647, "ECCENTRICITY": 0.00011618, "INCLINATION": 97.4392, "RA_OF_ASC_NODE": 68.0997, "ARG_OF_PERICENTER": 156.5001, "MEAN_ANOMALY": 203.6286, "EPHEMERIS_TYPE": 0, "CLASSIFICATION_TYPE": "U", "NORAD_CAT_ID": 66697, "ELEMENT_SET_NO": 999, "REV_AT_EPOCH": 360, "BSTAR": 0.00057639828, "MEAN_MOTION_DOT": 0.00011715, "MEAN_MOTION_DDOT": 0}, "tle": {"line1": "1 66697U 25276AH  25356.48803075  .00011715  00000+0  57640-3 0  9991", "line2": "2 66697  97.4392  68.0997 0001161 156.5001 203.6286 15.18156647  3606"}}, "geometry": {"type": "Point", "coordinates": [69.95354481314665, -10.606950655161251]}}, {"type": "Feature", "properties": {"norad_id": 66698, "name": "IRIDE FM4", "group": "last-30-days", "lat": -78.97628729316845, "lon": 110.64579995306448, "alt_km": 523.1850828825254, "timestamp": "2025-12-22T22:44:19.650101+00:00", "meta": {"OBJECT_NAME": "IRIDE FM4", "OBJECT_ID": "2025-276AJ", "EPOCH": "2025-12-22T12:00:56.134080", "MEAN_MOTION": 15.16825167, "ECCENTRICITY": 0.00029084, "INCLINATION": 97.4393, "RA_OF_ASC_NODE": 68.0837, "ARG_OF_PERICENTER": 201.6428, "MEAN_ANOMALY": 158.4683, "EPHEMERIS_TYPE": 0, "CLASSIFICATION_TYPE": "U", "NORAD_CAT_ID": 66698, "ELEMENT_SET_NO": 999, "REV_AT_EPOCH": 360, "BSTAR": -0.014231018, "MEAN_MOTION_DOT": -0.00269603, "MEAN_MOTION_DDOT": 0}, "tle": {"line1": "1 66698U 25276AJ  25356.50064970 -.00269603  00000+0 -14231-1 0  9998", "line2": "2 66698  97.4393  68.0837 0002908 201.6428 158.4683 15.16825167  3602"}}, "geometry": {"type": "Point", "coordinates": [110.64579995306448, -78.97628729316845]}}, {"type": "Feature", "properties": {"norad_id": 66699, "name": "IRIDE FM5", "group": "last-30-days", "lat": -76.84538031234685, "lon": 102.52510596962624, "alt_km": 519.0946578224912, "timestamp": "2025-12-22T22:44:19.650114+00:00", "meta": {"OBJECT_NAME": "IRIDE FM5", "OBJECT_ID": "2025-276AK", "EPOCH": "2025-12-22T14:00:01.999872", "MEAN_MOTION": 15.17324794, "ECCENTRICITY": 0.00032029, "INCLINATION": 97.4404, "RA_OF_ASC_NODE": 68.169, "ARG_OF_PERICENTER": 255.7577, "MEAN_ANOMALY": 197.5392, "EPHEMERIS_TYPE": 0, "CLASSIFICATION_TYPE": "U", "NORAD_CAT_ID": 66699, "ELEMENT_SET_NO": 999, "REV_AT_EPOCH": 130, "BSTAR": 0.0045647083, "MEAN_MOTION_DOT": 0.00092058, "MEAN_MOTION_DDOT": 0}, "tle": {"line1": "1 66699U 25276AK  25356.58335648  .00092058  00000+0  45647-2 0  9992", "line2": "2 66699  97.4404  68.1690 0003202 255.7577 197.5392 15.17324794  1304"}}, "geometry": {"type": "Point", "coordinates": [102.52510596962624, -76.84538031234685]}}, {"type": "Feature", "properties": {"norad_id": 66700, "name": "IRIDE FM6", "group": "last-30-days", "lat": -7.1902756826563285, "lon": 69.50785099760041, "alt_km": 516.2624767143252, "timestamp": "2025-12-22T22:44:19.650124+00:00", "meta": {"OBJECT_NAME": "IRIDE FM6", "OBJECT_ID": "2025-276AL", "EPOCH": "2025-12-22T06:57:09.101088", "MEAN_MOTION": 15.18205713, "ECCENTRICITY": 0.00015808, "INCLINATION": 97.4423, "RA_OF_ASC_NODE": 67.9159, "ARG_OF_PERICENTER": 165.31, "MEAN_ANOMALY": 194.818, "EPHEMERIS_TYPE": 0, "CLASSIFICATION_TYPE": "U", "NORAD_CAT_ID": 66700, "ELEMENT_SET_NO": 999, "REV_AT_EPOCH": 357, "BSTAR": 0.00060502053, "MEAN_MOTION_DOT": 0.00012319, "MEAN_MOTION_DDOT": 0}, "tle": {"line1": "1 66700U 25276AL  25356.28968867  .00012319  00000+0  60502-3 0  9997", "line2": "2 66700  97.4423  67.9159 0001580 165.3100 194.8180 15.18205713  3576"}}, "geometry": {"type": "Point", "coordinates": [69.50785099760041, -7.1902756826563285]}}, {"type": "Feature", "properties": {"norad_id": 66701, "name": "IRIDE FM7", "group": "last-30-days", "lat": -76.90957118065398, "lon": 102.73740597281547, "alt_km": 519.1492517415381, "timestamp": "2025-12-22T22:44:19.650136+00:00", "meta": {"OBJECT_NAME": "IRIDE FM7", "OBJECT_ID": "2025-276AM", "EPOCH": "2025-12-22T12:00:30.837888", "MEAN_MOTION": 15.17373833, "ECCENTRICITY": 0.00030726, "INCLINATION": 97.4422, "RA_OF_ASC_NODE": 68.0936, "ARG_OF_PERICENTER": 258.9796, "MEAN_ANOMALY": 101.1093, "EPHEMERIS_TYPE": 0, "CLASSIFICATION_TYPE": "U", "NORAD_CAT_ID": 66701, "ELEMENT_SET_NO": 999, "REV_AT_EPOCH": 360, "BSTAR": 0.00067058535, "MEAN_MOTION_DOT": 0.00013341, "MEAN_MOTION_DDOT": 0}, "tle": {"line1": "1 66701U 25276AM  25356.50035692  .00013341  00000+0  67059-3 0  9994", "line2": "2 66701  97.4422  68.0936 0003072 258.9796 101.1093 15.17373833  3605"}}, "geometry": {"type": "Point", "coordinates": [102.73740597281547, -76.90957118065398]}}, {"type": "Feature", "properties": {"norad_id": 66702, "name": "IRIDE FM8", "group": "last-30-days", "lat": -76.10770403834329, "lon": 100.42009570546918, "alt_km": 519.1458431854062, "timestamp": "2025-12-22T22:44:19.650147+00:00", "meta": {"OBJECT_NAME": "IRIDE FM8", "OBJECT_ID": "2025-276AN", "EPOCH": "2025-12-22T08:50:20.390784", "MEAN_MOTION": 15.17379588, "ECCENTRICITY": 0.00029157, "INCLINATION": 97.4401, "RA_OF_ASC_NODE": 67.9567, "ARG_OF_PERICENTER": 266.3809, "MEAN_ANOMALY": 93.7091, "EPHEMERIS_TYPE": 0, "CLASSIFICATION_TYPE": "U", "NORAD_CAT_ID": 66702, "ELEMENT_SET_NO": 999, "REV_AT_EPOCH": 358, "BSTAR": 0.00063198534, "MEAN_MOTION_DOT": 0.0001257, "MEAN_MOTION_DDOT": 0}, "tle": {"line1": "1 66702U 25276AN  25356.36829156  .00012570  00000+0  63199-3 0  9999", "line2": "2 66702  97.4401  67.9567 0002915 266.3809  93.7091 15.17379588  3588"}}, "geometry": {"type": "Point", "coordinates": [100.42009570546918, -76.10770403834329]}}, {"type": "Feature", "properties": {"norad_id": 66703, "name": "PELICAN-6", "group": "last-30-days", "lat": -69.85944876067056, "lon": 89.40770463723885, "alt_km": 520.6872912594217, "timestamp": "2025-12-22T22:44:19.650159+00:00", "meta": {"OBJECT_NAME": "PELICAN-6", "OBJECT_ID": "2025-276AP", "EPOCH": "2025-12-22T11:58:23.622528", "MEAN_MOTION": 15.17333386, "ECCENTRICITY": 0.00010243, "INCLINATION": 97.4409, "RA_OF_ASC_NODE": 68.0905, "ARG_OF_PERICENTER": 244.0546, "MEAN_ANOMALY": 116.0582, "EPHEMERIS_TYPE": 0, "CLASSIFICATION_TYPE": "U", "NORAD_CAT_ID": 66703, "ELEMENT_SET_NO": 999, "REV_AT_EPOCH": 360, "BSTAR": 0.00052423327, "MEAN_MOTION_DOT": 0.00010398, "MEAN_MOTION_DDOT": 0}, "tle": {"line1": "1 66703U 25276AP  25356.49888452  .00010398  00000+0  52423-3 0  9992", "line2": "2 66703  97.4409  68.0905 0001024 244.0546 116.0582 15.17333386  3609"}}, "geometry": {"type": "Point", "coordinates": [89.40770463723885, -69.85944876067056]}}, {"type": "Feature", "properties": {"norad_id": 66704, "name": "FLOCK 4H-1", "group": "last-30-days", "lat": -15.074171380521545, "lon": 70.56163435948865, "alt_km": 517.6995009544544, "timestamp": "2025-12-22T22:44:19.650169+00:00", "meta": {"OBJECT_NAME": "FLOCK 4H-1", "OBJECT_ID": "2025-276AQ", "EPOCH": "2025-12-22T11:43:55.083936", "MEAN_MOTION": 15.18075389, "ECCENTRICITY": 0.00018285, "INCLINATION": 97.4385, "RA_OF_ASC_NODE": 68.0942, "ARG_OF_PERICENTER": 172.7506, "MEAN_ANOMALY": 187.3755, "EPHEMERIS_TYPE": 0, "CLASSIFICATION_TYPE": "U", "NORAD_CAT_ID": 66704, "ELEMENT_SET_NO": 999, "REV_AT_EPOCH": 360, "BSTAR": 0.00050158442, "MEAN_MOTION_DOT": 0.0001016, "MEAN_MOTION_DDOT": 0}, "tle": {"line1": "1 66704U 25276AQ  25356.48883199  .00010160  00000+0  50158-3 0  9995", "line2": "2 66704  97.4385  68.0942 0001828 172.7506 187.3755 15.18075389  3609"}}, "geometry": {"type": "Point", "coordinates": [70.56163435948865, -15.074171380521545]}}, {"type": "Feature", "properties": {"norad_id": 66705, "name": "FLOCK 4H-2", "group": "last-30-days", "lat": -12.544937752876596, "lon": 70.21188089002104, "alt_km": 516.8952468093739, "timestamp": "2025-12-22T22:44:19.650179+00:00", "meta": {"OBJECT_NAME": "FLOCK 4H-2", "OBJECT_ID": "2025-276AR", "EPOCH": "2025-12-22T11:43:16.040640", "MEAN_MOTION": 15.18127317, "ECCENTRICITY": 0.00012656, "INCLINATION": 97.4379, "RA_OF_ASC_NODE": 68.0948, "ARG_OF_PERICENTER": 162.0552, "MEAN_ANOMALY": 198.0727, "EPHEMERIS_TYPE": 0, "CLASSIFICATION_TYPE": "U", "NORAD_CAT_ID": 66705, "ELEMENT_SET_NO": 999, "REV_AT_EPOCH": 360, "BSTAR": 0.00059174248, "MEAN_MOTION_DOT": 0.00012019, "MEAN_MOTION_DDOT": 0}, "tle": {"line1": "1 66705U 25276AR  25356.48838010  .00012019  00000+0  59174-3 0  9990", "line2": "2 66705  97.4379  68.0948 0001265 162.0552 198.0727 15.18127317  3604"}}, "geometry": {"type": "Point", "coordinates": [70.21188089002104, -12.544937752876596]}}, {"type": "Feature", "properties": {"norad_id": 66706, "name": "FLOCK 4H-3", "group": "last-30-days", "lat": -66.1535367267856, "lon": 85.75328185443692, "alt_km": 519.3516023964612, "timestamp": "2025-12-22T22:44:19.650190+00:00", "meta": {"OBJECT_NAME": "FLOCK 4H-3", "OBJECT_ID": "2025-276AS", "EPOCH": "2025-12-22T04:02:37.677696", "MEAN_MOTION": 15.17466009, "ECCENTRICITY": 0.00028667, "INCLINATION": 97.4448, "RA_OF_ASC_NODE": 67.7803, "ARG_OF_PERICENTER": 250.0382, "MEAN_ANOMALY": 110.0543, "EPHEMERIS_TYPE": 0, "CLASSIFICATION_TYPE": "U", "NORAD_CAT_ID": 66706, "ELEMENT_SET_NO": 999, "REV_AT_EPOCH": 355, "BSTAR": 0.00027517027, "MEAN_MOTION_DOT": 5.444e-05, "MEAN_MOTION_DDOT": 0}, "tle": {"line1": "1 66706U 25276AS  25356.16849164  .00005444  00000+0  27517-3 0  9998", "line2": "2 66706  97.4448  67.7803 0002866 250.0382 110.0543 15.17466009  3552"}}, "geometry": {"type": "Point", "coordinates": [85.75328185443692, -66.1535367267856]}}]}